{"type": "FeatureCollection", "features": [ {"type": "Feature", "properties": {"norad_id": 33779, "name": "COSMOS 2251 DEB", "group": "cosmos-2251-debris", "lat": 49.52363485021549, "lon": -10.71002989940706, "alt_km": 657.1122079406114, "timestamp": "2025-12-03T08:58:46.395357+00:00", "meta": {"OBJECT_NAME": "COSMOS 2251 DEB", "OBJECT_ID": "1993-036U", "EPOCH": "2025-12-03T00:55:01.811424", "MEAN_MOTION": 14.70149836, "ECCENTRICITY": 0.0017784, "INCLINATION": 74.0444, "RA_OF_ASC_NODE": 189.529, "ARG_OF_PERICENTER": 224.8407, "MEAN_ANOMALY": 285.7962, "EPHEMERIS_TYPE": 0, "CLASSIFICATION_TYPE": "U", "NORAD_CAT_ID": 33779, "ELEMENT_SET_NO": 999, "REV_AT_EPOCH": 88385, "BSTAR": 0.001595, "MEAN_MOTION_DOT": 9.604e-05, "MEAN_MOTION_DDOT": 0}, "tle": {"line1": "1 33779U 93036U   25337.03821541  .00009604  00000+0  15950-2 0  9994", "line2": "2 33779  74.0444 189.5290 0017784 224.8407 285.7962 14.70149836883856"}}, "geometry": {"type": "Point", "coordinates": [-10.71002989940706, 49.52363485021549]}}, {"type": "Feature", "properties": {"norad_id": 33782, "name": "COSMOS 2251 DEB", "group": "cosmos-2251-debris", "lat": 4.835994787585096, "lon": 113.47937103719515, "alt_km": 773.5453691198236, "timestamp": "2025-12-03T08:58:46.395367+00:00", "meta": {"OBJECT_NAME": "COSMOS 2251 DEB", "OBJECT_ID": "1993-036X", "EPOCH": "2025-12-02T22:25:33.716064", "MEAN_MOTION": 14.40400246, "ECCENTRICITY": 0.0020322, "INCLINATION": 74.0326, "RA_OF_ASC_NODE": 295.6803, "ARG_OF_PERICENTER": 2.2173, "MEAN_ANOMALY": 53.3366, "EPHEMERIS_TYPE": 0, "CLASSIFICATION_TYPE": "U", "NORAD_CAT_ID": 33782, "ELEMENT_SET_NO": 999, "REV_AT_EPOCH": 87985, "BSTAR": 0.00059933, "MEAN_MOTION_DOT": 1.882e-05, "MEAN_MOTION_DDOT": 0}, "tle": {"line1": "1 33782U 93036X   25336.93441801  .00001882  00000+0  59933-3 0  9993", "line2": "2 33782  74.0326 295.6803 0020322   2.2173  53.3366 14.40400246879852"}}, "geometry": {"type": "Point", "coordinates": [113.47937103719515, 4.835994787585096]}}, {"type": "Feature", "properties": {"norad_id": 33785, "name": "COSMOS 2251 DEB", "group": "cosmos-2251-debris", "lat": 70.8398334124479, "lon": -158.1280443883168, "alt_km": 650.910257497294, "timestamp": "2025-12-03T08:58:46.395378+00:00", "meta": {"OBJECT_NAME": "COSMOS 2251 DEB", "OBJECT_ID": "1993-036AA", "EPOCH": "2025-12-03T01:10:20.275392", "MEAN_MOTION": 14.70103867, "ECCENTRICITY": 0.0021318, "INCLINATION": 73.8675, "RA_OF_ASC_NODE": 78.9203, "ARG_OF_PERICENTER": 20.9269, "MEAN_ANOMALY": 158.3524, "EPHEMERIS_TYPE": 0, "CLASSIFICATION_TYPE": "U", "NORAD_CAT_ID": 33785, "ELEMENT_SET_NO": 999, "REV_AT_EPOCH": 88364, "BSTAR": 0.0027608, "MEAN_MOTION_DOT": 0.00016663, "MEAN_MOTION_DDOT": 0}, "tle": {"line1": "1 33785U 93036AA  25337.04884578  .00016663  00000+0  27608-2 0  9997", "line2": "2 33785  73.8675  78.9203 0021318  20.9269 158.3524 14.70103867883640"}}, "geometry": {"type": "Point", "coordinates": [-158.1280443883168, 70.8398334124479]}}, {"type": "Feature", "properties": {"norad_id": 33789, "name": "COSMOS 2251 DEB", "group": "cosmos-2251-debris", "lat": 35.93826476148554, "lon": -88.6532691244635, "alt_km": 891.5616344566561, "timestamp": "2025-12-03T08:58:46.395388+00:00", "meta": {"OBJECT_NAME": "COSMOS 2251 DEB", "OBJECT_ID": "1993-036AE", "EPOCH": "2025-12-03T02:12:44.706240", "MEAN_MOTION": 13.88758107, "ECCENTRICITY": 0.0240503, "INCLINATION": 74.0635, "RA_OF_ASC_NODE": 103.7787, "ARG_OF_PERICENTER": 221.5259, "MEAN_ANOMALY": 314.3204, "EPHEMERIS_TYPE": 0, "CLASSIFICATION_TYPE": "U", "NORAD_CAT_ID": 33789, "ELEMENT_SET_NO": 999, "REV_AT_EPOCH": 84961, "BSTAR": 0.0010005, "MEAN_MOTION_DOT": 1.497e-05, "MEAN_MOTION_DDOT": 0}, "tle": {"line1": "1 33789U 93036AE  25337.09218410  .00001497  00000+0  10005-2 0  9994", "line2": "2 33789  74.0635 103.7787 0240503 221.5259 314.3204 13.88758107849613"}}, "geometry": {"type": "Point", "coordinates": [-88.6532691244635, 35.93826476148554]}}, {"type": "Feature", "properties": {"norad_id": 33791, "name": "COSMOS 2251 DEB", "group": "cosmos-2251-debris", "lat": -9.872821148141297, "lon": 51.998564478944154, "alt_km": 754.6423433755472, "timestamp": "2025-12-03T08:58:46.395399+00:00", "meta": {"OBJECT_NAME": "COSMOS 2251 DEB", "OBJECT_ID": "1993-036AG", "EPOCH": "2025-12-02T15:13:52.315392", "MEAN_MOTION": 14.43041455, "ECCENTRICITY": 0.0030581, "INCLINATION": 74.1759, "RA_OF_ASC_NODE": 56.1887, "ARG_OF_PERICENTER": 255.0035, "MEAN_ANOMALY": 214.3212, "EPHEMERIS_TYPE": 0, "CLASSIFICATION_TYPE": "U", "NORAD_CAT_ID": 33791, "ELEMENT_SET_NO": 999, "REV_AT_EPOCH": 87906, "BSTAR": 0.0008701105, "MEAN_MOTION_DOT": 2.908e-05, "MEAN_MOTION_DDOT": 0}, "tle": {"line1": "1 33791U 93036AG  25336.63463328  .00002908  00000+0  87011-3 0  9996", "line2": "2 33791  74.1759  56.1887 0030581 255.0035 214.3212 14.43041455879066"}}, "geometry": {"type": "Point", "coordinates": [51.998564478944154, -9.872821148141297]}}, {"type": "Feature", "properties": {"norad_id": 33792, "name": "COSMOS 2251 DEB", "group": "cosmos-2251-debris", "lat": 68.373474319002, "lon": 47.05336855063861, "alt_km": 765.3859965494667, "timestamp": "2025-12-03T08:58:46.395409+00:00", "meta": {"OBJECT_NAME": "COSMOS 2251 DEB", "OBJECT_ID": "1993-036AH", "EPOCH": "2025-12-03T03:35:11.374944", "MEAN_MOTION": 13.45801572, "ECCENTRICITY": 0.0426818, "INCLINATION": 73.9011, "RA_OF_ASC_NODE": 0.6592, "ARG_OF_PERICENTER": 67.1048, "MEAN_ANOMALY": 359.2783, "EPHEMERIS_TYPE": 0, "CLASSIFICATION_TYPE": "U", "NORAD_CAT_ID": 33792, "ELEMENT_SET_NO": 999, "REV_AT_EPOCH": 82313, "BSTAR": 0.00077748, "MEAN_MOTION_DOT": 7.86e-06, "MEAN_MOTION_DDOT": 0}, "tle": {"line1": "1 33792U 93036AH  25337.14943721  .00000786  00000+0  77748-3 0  9992", "line2": "2 33792  73.9011   0.6592 0426818  67.1048 359.2783 13.45801572823134"}}, "geometry": {"type": "Point", "coordinates": [47.05336855063861, 68.373474319002]}}, {"type": "Feature", "properties": {"norad_id": 33793, "name": "COSMOS 2251 DEB", "group": "cosmos-2251-debris", "lat": 30.867562002819433, "lon": 176.8270229013917, "alt_km": 781.1307093215382, "timestamp": "2025-12-03T08:58:46.395420+00:00", "meta": {"OBJECT_NAME": "COSMOS 2251 DEB", "OBJECT_ID": "1993-036AJ", "EPOCH": "2025-12-02T23:18:54.613152", "MEAN_MOTION": 14.27670646, "ECCENTRICITY": 0.0078169, "INCLINATION": 73.9798, "RA_OF_ASC_NODE": 167.6701, "ARG_OF_PERICENTER": 319.683, "MEAN_ANOMALY": 163.0027, "EPHEMERIS_TYPE": 0, "CLASSIFICATION_TYPE": "U", "NORAD_CAT_ID": 33793, "ELEMENT_SET_NO": 999, "REV_AT_EPOCH": 87067, "BSTAR": 0.00077936, "MEAN_MOTION_DOT": 1.958e-05, "MEAN_MOTION_DDOT": 0}, "tle": {"line1": "1 33793U 93036AJ  25336.97146543  .00001958  00000+0  77936-3 0  9991", "line2": "2 33793  73.9798 167.6701 0078169 319.6830 163.0027 14.27670646870679"}}, "geometry": {"type": "Point", "coordinates": [176.8270229013917, 30.867562002819433]}}, {"type": "Feature", "properties": {"norad_id": 33795, "name": "COSMOS 2251 DEB", "group": "cosmos-2251-debris", "lat": -61.92803112553082, "lon": -51.594583693233645, "alt_km": 548.6225785299648, "timestamp": "2025-12-03T08:58:46.395430+00:00", "meta": {"OBJECT_NAME": "COSMOS 2251 DEB", "OBJECT_ID": "1993-036AL", "EPOCH": "2025-12-03T02:17:43.645920", "MEAN_MOTION": 15.04879728, "ECCENTRICITY": 0.0033255, "INCLINATION": 74.0315, "RA_OF_ASC_NODE": 96.5019, "ARG_OF_PERICENTER": 182.817, "MEAN_ANOMALY": 355.2198, "EPHEMERIS_TYPE": 0, "CLASSIFICATION_TYPE": "U", "NORAD_CAT_ID": 33795, "ELEMENT_SET_NO": 999, "REV_AT_EPOCH": 89876, "BSTAR": 0.0022576, "MEAN_MOTION_DOT": 0.00032442, "MEAN_MOTION_DDOT": 0}, "tle": {"line1": "1 33795U 93036AL  25337.09564405  .00032442  00000+0  22576-2 0  9999", "line2": "2 33795  74.0315  96.5019 0033255 182.8170 355.2198 15.04879728898766"}}, "geometry": {"type": "Point", "coordinates": [-51.594583693233645, -61.92803112553082]}}, {"type": "Feature", "properties": {"norad_id": 33797, "name": "COSMOS 2251 DEB", "group": "cosmos-2251-debris", "lat": -41.53640092337004, "lon": -112.56507222119943, "alt_km": 698.887601203066, "timestamp": "2025-12-03T08:58:46.395456+00:00", "meta": {"OBJECT_NAME": "COSMOS 2251 DEB", "OBJECT_ID": "1993-036AN", "EPOCH": "2025-12-03T04:48:16.772832", "MEAN_MOTION": 14.57779784, "ECCENTRICITY": 0.0061235, "INCLINATION": 74.0486, "RA_OF_ASC_NODE": 53.0883, "ARG_OF_PERICENTER": 143.7689, "MEAN_ANOMALY": 246.5183, "EPHEMERIS_TYPE": 0, "CLASSIFICATION_TYPE": "U", "NORAD_CAT_ID": 33797, "ELEMENT_SET_NO": 999, "REV_AT_EPOCH": 88846, "BSTAR": 0.00069901, "MEAN_MOTION_DOT": 3.251e-05, "MEAN_MOTION_DDOT": 0}, "tle": {"line1": "1 33797U 93036AN  25337.20019413  .00003251  00000+0  69901-3 0  9998", "line2": "2 33797  74.0486  53.0883 0061235 143.7689 246.5183 14.57779784888464"}}, "geometry": {"type": "Point", "coordinates": [-112.56507222119943, -41.53640092337004]}}, {"type": "Feature", "properties": {"norad_id": 33798, "name": "COSMOS 2251 DEB", "group": "cosmos-2251-debris", "lat": -6.011974675742803, "lon": -24.921586451105995, "alt_km": 746.7949391745578, "timestamp": "2025-12-03T08:58:46.395472+00:00", "meta": {"OBJECT_NAME": "COSMOS 2251 DEB", "OBJECT_ID": "1993-036AP", "EPOCH": "2025-12-02T22:40:47.758080", "MEAN_MOTION": 14.44595033, "ECCENTRICITY": 0.0092484, "INCLINATION": 74.0276, "RA_OF_ASC_NODE": 154.149, "ARG_OF_PERICENTER": 277.6324, "MEAN_ANOMALY": 198.6522, "EPHEMERIS_TYPE": 0, "CLASSIFICATION_TYPE": "U", "NORAD_CAT_ID": 33798, "ELEMENT_SET_NO": 999, "REV_AT_EPOCH": 88452, "BSTAR": 0.00020788, "MEAN_MOTION_DOT": 7.28e-06, "MEAN_MOTION_DDOT": 0}, "tle": {"line1": "1 33798U 93036AP  25336.94499720  .00000728  00000+0  20788-3 0  9998", "line2": "2 33798  74.0276 154.1490 0092484 277.6324 198.6522 14.44595033884528"}}, "geometry": {"type": "Point", "coordinates": [-24.921586451105995, -6.011974675742803]}}]}